GSAT0101 (PRN E11)      
1 37846U 11060A   24156.81844420 -.00000092  00000+0  00000+0 0  9995
2 37846  57.1285   1.8668 0003735  44.1677 315.9022  1.70475832 78468
GSAT0102 (PRN E12)      
1 37847U 11060B   24156.45466229 -.00000091  00000+0  00000+0 0  9992
2 37847  57.1293   1.8768 0003653   6.3282 176.1934  1.70475279 78587
GSAT0103 (PRN E19)      
1 38857U 12055A   24155.09778240  .00000036  00000+0  00000+0 0  9995
2 38857  55.4014 121.9924 0005660 280.4798  79.4148  1.70473515 72325
GSAT0201 (PRN E18)      
1 40128U 14050A   24155.61260744 -.00000103  00000+0  00000+0 0  9995
2 40128  49.6746 303.6089 1611158 150.7089 219.3891  1.85519291 66461
GSAT0202 (PRN E14)      
1 40129U 14050B   24157.48792290 -.00000103  00000+0  00000+0 0  9999
2 40129  49.6896 302.6102 1609950 151.5859 218.2402  1.85520002 66721
GSAT0203 (PRN E26)      
1 40544U 15017A   24157.18428750 -.00000094  00000+0  00000+0 0  9997
2 40544  56.9239   1.7926 0001516 281.9801  78.0418  1.70475802 56553
GSAT0204 (PRN E22)      
1 40545U 15017B   24156.85188256 -.00000093  00000+0  00000+0 0  9994
2 40545  56.9298   1.8170 0001145 236.5727 123.4559  1.70475468 19594
GSAT0205 (PRN E24)      
1 40889U 15045A   24156.03348393 -.00000002  00000+0  00000+0 0  9996
2 40889  55.2234 242.1339 0003278  27.9569 332.1097  1.70474005 54343
GSAT0206 (PRN E30)      
1 40890U 15045B   24156.84072530  .00000001  00000+0  00000+0 0  9992
2 40890  55.2216 242.1071 0001150   0.7310 359.3236  1.70473717 54387
GSAT0209 (PRN E09)      
1 41174U 15079A   24155.83721546  .00000028  00000+0  00000+0 0  9990
2 41174  55.4202 121.6812 0005367 314.1065  45.8020  1.70474037 52109
GSAT0208 (PRN E08)      
1 41175U 15079B   24156.64354318  .00000020  00000+0  00000+0 0  9992
2 41175  55.4189 121.6569 0004682 313.7190  46.1893  1.70473993 52692
GSAT0211 (PRN E02)      
1 41549U 16030A   24157.35301777  .00000003  00000+0  00000+0 0  9996
2 41549  55.3699 242.1029 0001921  31.2920 328.7772  1.70473842 50021
GSAT0210 (PRN E01)      
1 41550U 16030B   24157.05770968  .00000002  00000+0  00000+0 0  9996
2 41550  55.3692 242.1121 0002881 263.3925  96.6306  1.70473852 50012
GSAT0207 (PRN E07)      
1 41859U 16069A   24156.71743225  .00000018  00000+0  00000+0 0  9995
2 41859  55.0850 121.6615 0005648 302.5197  57.3724  1.70473985 46747
GSAT0212 (PRN E03)      
1 41860U 16069B   24156.57173957  .00000020  00000+0  00000+0 0  9993
2 41860  55.0829 121.6620 0004208 323.1343  36.7844  1.70474187 46990
GSAT0213 (PRN E04)      
1 41861U 16069C   24155.76688420  .00000028  00000+0  00000+0 0  9998
2 41861  55.0847 121.6908 0005665 286.0767  73.8141  1.70472863 46840
GSAT0214 (PRN E05)      
1 41862U 16069D   24157.08548548  .00000015  00000+0  00000+0 0  9998
2 41862  55.0840 121.6480 0004621 290.4721  69.4228  1.70474240 46993
GSAT0215 (PRN E21)      
1 43055U 17079A   24156.40208896  .00000000  00000+0  00000+0 0  9994
2 43055  55.3468 241.9511 0002073 251.2272 108.8021  1.70474739 40327
GSAT0216 (PRN E25)      
1 43056U 17079B   24155.52062660 -.00000004  00000+0  00000+0 0  9999
2 43056  55.3476 241.9753 0003421 268.0821  91.9250  1.70474803 40293
GSAT0217 (PRN E27)      
1 43057U 17079C   24156.32767602  .00000000  00000+0  00000+0 0  9992
2 43057  55.3457 241.9518 0002574 285.9051  74.1178  1.70474771 40323
GSAT0218 (PRN E31)      
1 43058U 17079D   24156.54772662  .00000001  00000+0  00000+0 0  9990
2 43058  55.3458 241.9433 0003973 265.6510  94.3563  1.70474733 40320
GSAT0221 (PRN E15)      
1 43564U 18060A   24152.92893743 -.00000080  00000+0  00000+0 0  9993
2 43564  57.3037   1.9046 0002562 312.6031  47.4175  1.70475564 36444
GSAT0222 (PRN E33)      
1 43565U 18060B   24156.08033725 -.00000090  00000+0  00000+0 0  9992
2 43565  57.3075   1.8215 0001971 254.6233 105.3961  1.70475360 36548
GSAT0219 (PRN E36)      
1 43566U 18060C   24156.88885149 -.00000092  00000+0  00000+0 0  9998
2 43566  57.3069   1.8017 0002128 333.7922  26.2370  1.70475667 36535
GSAT0220 (PRN E13)      
1 43567U 18060D   24157.10945621 -.00000093  00000+0  00000+0 0  9998
2 43567  57.3061   1.7956 0002126 322.8245  37.2002  1.70475440 36526
GSAT0223 (PRN E34)      
1 49809U 21116A   24155.51105705 -.00000088  00000+0  00000+0 0  9997
2 49809  57.2973   1.7332 0001341 126.6486  62.8260  1.70475490 15505
GSAT0224 (PRN E10)      
1 49810U 21116B   24155.30762594 -.00000087  00000+0  00000+0 0  9990
2 49810  57.2984   1.7371 0001255 109.2049  67.9281  1.70475489 15527
GSAT0225 (PRN E29)      
1 59598U 24079A   24157.34624060  .00000013  00000+0  00000+0 0  9994
2 59598  54.6821 121.8438 0021517 254.8153 285.6605  1.72327292   664
GSAT0227 (PRN E06)      
1 59600U 24079C   24155.03767243  .00000036  00000+0  00000+0 0  9998
2 59600  54.6917 121.8821 0006815 238.8904 121.0017  1.70567972   670
